{"type": "FeatureCollection", "features": [ {"type": "Feature", "properties": {"norad_id": 60989, "name": "SENTINEL-2C", "group": "resource", "lat": 5.691988659234317, "lon": -111.61373079348017, "alt_km": 790.997133639823, "timestamp": "2025-12-21T03:56:50.512454+00:00", "meta": {"OBJECT_NAME": "SENTINEL-2C", "OBJECT_ID": "2024-157A", "EPOCH": "2025-12-20T18:44:40.814880", "MEAN_MOTION": 14.30820493, "ECCENTRICITY": 0.0001197, "INCLINATION": 98.5674, "RA_OF_ASC_NODE": 67.1475, "ARG_OF_PERICENTER": 95.5645, "MEAN_ANOMALY": 264.5674, "EPHEMERIS_TYPE": 0, "CLASSIFICATION_TYPE": "U", "NORAD_CAT_ID": 60989, "ELEMENT_SET_NO": 999, "REV_AT_EPOCH": 6747, "BSTAR": 5.5963e-05, "MEAN_MOTION_DOT": 1.03e-06, "MEAN_MOTION_DDOT": 0}, "tle": {"line1": "1 60989U 24157A   25354.78102795  .00000103  00000+0  55963-4 0  9994", "line2": "2 60989  98.5674  67.1475 0001197  95.5645 264.5674 14.30820493 67477"}}, "geometry": {"type": "Point", "coordinates": [-111.61373079348017, 5.691988659234317]}}, {"type": "Feature", "properties": {"norad_id": 61735, "name": "IONOSFERA-M 1", "group": "resource", "lat": -15.074607812463164, "lon": 42.57309521578155, "alt_km": 821.2456400946303, "timestamp": "2025-12-21T03:56:50.512463+00:00", "meta": {"OBJECT_NAME": "IONOSFERA-M 1", "OBJECT_ID": "2024-199A", "EPOCH": "2025-12-20T21:58:09.849792", "MEAN_MOTION": 14.22715699, "ECCENTRICITY": 5.66e-05, "INCLINATION": 98.7398, "RA_OF_ASC_NODE": 224.7007, "ARG_OF_PERICENTER": 11.6218, "MEAN_ANOMALY": 348.4972, "EPHEMERIS_TYPE": 0, "CLASSIFICATION_TYPE": "U", "NORAD_CAT_ID": 61735, "ELEMENT_SET_NO": 999, "REV_AT_EPOCH": 10235, "BSTAR": 4.0368e-05, "MEAN_MOTION_DOT": 4.6e-07, "MEAN_MOTION_DDOT": 0}, "tle": {"line1": "1 61735U 24199A   25354.91539178  .00000046  00000+0  40368-4 0  9993", "line2": "2 61735  98.7398 224.7007 0000566  11.6218 348.4972 14.22715699102350"}}, "geometry": {"type": "Point", "coordinates": [42.57309521578155, -15.074607812463164]}}, {"type": "Feature", "properties": {"norad_id": 61736, "name": "IONOSFERA-M 2", "group": "resource", "lat": 17.5274797418122, "lon": -137.92466518170767, "alt_km": 816.368284498446, "timestamp": "2025-12-21T03:56:50.512472+00:00", "meta": {"OBJECT_NAME": "IONOSFERA-M 2", "OBJECT_ID": "2024-199B", "EPOCH": "2025-12-20T21:06:45.978048", "MEAN_MOTION": 14.22717864, "ECCENTRICITY": 0.0001815, "INCLINATION": 98.7397, "RA_OF_ASC_NODE": 224.5776, "ARG_OF_PERICENTER": 100.1206, "MEAN_ANOMALY": 260.0177, "EPHEMERIS_TYPE": 0, "CLASSIFICATION_TYPE": "U", "NORAD_CAT_ID": 61736, "ELEMENT_SET_NO": 999, "REV_AT_EPOCH": 10547, "BSTAR": 4.2056e-05, "MEAN_MOTION_DOT": 5e-07, "MEAN_MOTION_DDOT": 0}, "tle": {"line1": "1 61736U 24199B   25354.87969882  .00000050  00000+0  42056-4 0  9999", "line2": "2 61736  98.7397 224.5776 0001815 100.1206 260.0177 14.22717864105478"}}, "geometry": {"type": "Point", "coordinates": [-137.92466518170767, 17.5274797418122]}}, {"type": "Feature", "properties": {"norad_id": 63772, "name": "BIOMASS", "group": "resource", "lat": 52.03698404881691, "lon": 10.528355430776173, "alt_km": 663.5781326791912, "timestamp": "2025-12-21T03:56:50.512482+00:00", "meta": {"OBJECT_NAME": "BIOMASS", "OBJECT_ID": "2025-090A", "EPOCH": "2025-12-20T11:00:22.690080", "MEAN_MOTION": 14.67537273, "ECCENTRICITY": 0.00011035, "INCLINATION": 98.07, "RA_OF_ASC_NODE": 179.356, "ARG_OF_PERICENTER": 81.418, "MEAN_ANOMALY": 278.715, "EPHEMERIS_TYPE": 0, "CLASSIFICATION_TYPE": "U", "NORAD_CAT_ID": 63772, "ELEMENT_SET_NO": 999, "REV_AT_EPOCH": 3447, "BSTAR": 0.0001671094, "MEAN_MOTION_DOT": 9e-06, "MEAN_MOTION_DDOT": 0}, "tle": {"line1": "1 63772U 25090A   25354.45859595  .00000900  00000+0  16711-3 0  9997", "line2": "2 63772  98.0700 179.3560 0001103  81.4180 278.7150 14.67537273 34472"}}, "geometry": {"type": "Point", "coordinates": [10.528355430776173, 52.03698404881691]}}, {"type": "Feature", "properties": {"norad_id": 64694, "name": "GOSAT-GW (IBUKI GW)", "group": "resource", "lat": -22.466786289409878, "lon": -66.12277094836182, "alt_km": 674.5259804565676, "timestamp": "2025-12-21T03:56:50.512491+00:00", "meta": {"OBJECT_NAME": "GOSAT-GW (IBUKI GW)", "OBJECT_ID": "2025-141A", "EPOCH": "2025-12-20T19:52:07.932576", "MEAN_MOTION": 14.67565918, "ECCENTRICITY": 0.0001458, "INCLINATION": 98.0435, "RA_OF_ASC_NODE": 290.1943, "ARG_OF_PERICENTER": 83.929, "MEAN_ANOMALY": 276.2081, "EPHEMERIS_TYPE": 0, "CLASSIFICATION_TYPE": "U", "NORAD_CAT_ID": 64694, "ELEMENT_SET_NO": 999, "REV_AT_EPOCH": 2568, "BSTAR": 9.8277e-05, "MEAN_MOTION_DOT": 5.1e-06, "MEAN_MOTION_DDOT": 0}, "tle": {"line1": "1 64694U 25141A   25354.82786959  .00000510  00000+0  98277-4 0  9997", "line2": "2 64694  98.0435 290.1943 0001458  83.9290 276.2081 14.67565918 25686"}}, "geometry": {"type": "Point", "coordinates": [-66.12277094836182, -22.466786289409878]}}, {"type": "Feature", "properties": {"norad_id": 64876, "name": "IONOSFERA-M 3", "group": "resource", "lat": 23.001233692315658, "lon": -46.88176238246225, "alt_km": 818.6768703295556, "timestamp": "2025-12-21T03:56:50.512500+00:00", "meta": {"OBJECT_NAME": "IONOSFERA-M 3", "OBJECT_ID": "2025-155A", "EPOCH": "2025-12-20T21:04:50.539872", "MEAN_MOTION": 14.2144283, "ECCENTRICITY": 0.0002004, "INCLINATION": 98.5794, "RA_OF_ASC_NODE": 316.5145, "ARG_OF_PERICENTER": 46.877, "MEAN_ANOMALY": 313.2575, "EPHEMERIS_TYPE": 0, "CLASSIFICATION_TYPE": "U", "NORAD_CAT_ID": 64876, "ELEMENT_SET_NO": 999, "REV_AT_EPOCH": 2107, "BSTAR": 3.5973e-05, "MEAN_MOTION_DOT": 3.6e-07, "MEAN_MOTION_DDOT": 0}, "tle": {"line1": "1 64876U 25155A   25354.87836273  .00000036  00000+0  35973-4 0  9991", "line2": "2 64876  98.5794 316.5145 0002004  46.8770 313.2575 14.21442830 21073"}}, "geometry": {"type": "Point", "coordinates": [-46.88176238246225, 23.001233692315658]}}, {"type": "Feature", "properties": {"norad_id": 64877, "name": "IONOSFERA-M 4", "group": "resource", "lat": -23.91277063324162, "lon": 132.8737766224833, "alt_km": 826.7963916238041, "timestamp": "2025-12-21T03:56:50.512509+00:00", "meta": {"OBJECT_NAME": "IONOSFERA-M 4", "OBJECT_ID": "2025-155B", "EPOCH": "2025-12-20T20:13:57.939744", "MEAN_MOTION": 14.21443954, "ECCENTRICITY": 0.0001404, "INCLINATION": 98.5792, "RA_OF_ASC_NODE": 316.3995, "ARG_OF_PERICENTER": 55.5135, "MEAN_ANOMALY": 304.6175, "EPHEMERIS_TYPE": 0, "CLASSIFICATION_TYPE": "U", "NORAD_CAT_ID": 64877, "ELEMENT_SET_NO": 999, "REV_AT_EPOCH": 2106, "BSTAR": 3.45e-05, "MEAN_MOTION_DOT": 3.3e-07, "MEAN_MOTION_DDOT": 0}, "tle": {"line1": "1 64877U 25155B   25354.84303171  .00000033  00000+0  34500-4 0  9997", "line2": "2 64877  98.5792 316.3995 0001404  55.5135 304.6175 14.21443954 21065"}}, "geometry": {"type": "Point", "coordinates": [132.8737766224833, -23.91277063324162]}}, {"type": "Feature", "properties": {"norad_id": 64899, "name": "MICROCARB", "group": "resource", "lat": 81.88153376458656, "lon": -29.194526610268884, "alt_km": 636.1126469255651, "timestamp": "2025-12-21T03:56:50.512518+00:00", "meta": {"OBJECT_NAME": "MICROCARB", "OBJECT_ID": "2025-156A", "EPOCH": "2025-12-20T19:22:39.506016", "MEAN_MOTION": 14.72068878, "ECCENTRICITY": 0.0017534, "INCLINATION": 98.0017, "RA_OF_ASC_NODE": 70.0233, "ARG_OF_PERICENTER": 120.4868, "MEAN_ANOMALY": 239.8073, "EPHEMERIS_TYPE": 0, "CLASSIFICATION_TYPE": "U", "NORAD_CAT_ID": 64899, "ELEMENT_SET_NO": 999, "REV_AT_EPOCH": 2172, "BSTAR": 8.1944e-05, "MEAN_MOTION_DOT": 4.66e-06, "MEAN_MOTION_DDOT": 0}, "tle": {"line1": "1 64899U 25156A   25354.80740169  .00000466  00000+0  81944-4 0  9994", "line2": "2 64899  98.0017  70.0233 0017534 120.4868 239.8073 14.72068878 21722"}}, "geometry": {"type": "Point", "coordinates": [-29.194526610268884, 81.88153376458656]}}, {"type": "Feature", "properties": {"norad_id": 64900, "name": "CO3D 3", "group": "resource", "lat": 29.21778027933517, "lon": -104.40065118919566, "alt_km": 503.59538730851364, "timestamp": "2025-12-21T03:56:50.512527+00:00", "meta": {"OBJECT_NAME": "CO3D 3", "OBJECT_ID": "2025-156B", "EPOCH": "2025-12-20T19:23:21.550848", "MEAN_MOTION": 15.20205991, "ECCENTRICITY": 0.0001342, "INCLINATION": 97.4345, "RA_OF_ASC_NODE": 71.0597, "ARG_OF_PERICENTER": 79.9574, "MEAN_ANOMALY": 280.1813, "EPHEMERIS_TYPE": 0, "CLASSIFICATION_TYPE": "U", "NORAD_CAT_ID": 64900, "ELEMENT_SET_NO": 999, "REV_AT_EPOCH": 2243, "BSTAR": 0.00021865, "MEAN_MOTION_DOT": 4.669e-05, "MEAN_MOTION_DDOT": 0}, "tle": {"line1": "1 64900U 25156B   25354.80788832  .00004669  00000+0  21865-3 0  9990", "line2": "2 64900  97.4345  71.0597 0001342  79.9574 280.1813 15.20205991 22431"}}, "geometry": {"type": "Point", "coordinates": [-104.40065118919566, 29.21778027933517]}}, {"type": "Feature", "properties": {"norad_id": 64901, "name": "CO3D 4", "group": "resource", "lat": 29.820997468495236, "lon": -104.29695982862431, "alt_km": 502.8614982496365, "timestamp": "2025-12-21T03:56:50.512536+00:00", "meta": {"OBJECT_NAME": "CO3D 4", "OBJECT_ID": "2025-156C", "EPOCH": "2025-12-19T14:57:26.055072", "MEAN_MOTION": 15.20230123, "ECCENTRICITY": 0.0001264, "INCLINATION": 97.434, "RA_OF_ASC_NODE": 69.8917, "ARG_OF_PERICENTER": 174.7354, "MEAN_ANOMALY": 185.3894, "EPHEMERIS_TYPE": 0, "CLASSIFICATION_TYPE": "U", "NORAD_CAT_ID": 64901, "ELEMENT_SET_NO": 999, "REV_AT_EPOCH": 2225, "BSTAR": 0.00021367, "MEAN_MOTION_DOT": 4.564e-05, "MEAN_MOTION_DDOT": 0}, "tle": {"line1": "1 64901U 25156C   25353.62321823  .00004564  00000+0  21367-3 0  9994", "line2": "2 64901  97.4340  69.8917 0001264 174.7354 185.3894 15.20230123 22251"}}, "geometry": {"type": "Point", "coordinates": [-104.29695982862431, 29.820997468495236]}}]}